[Satellite]
VERSION=1.1
NAME=IRIDIUM 911 [-]
NICKNAME=IRIDIUM 911 [-]
TLE1=1 24842U 97030G   17186.04487093  .00000108  00000-0  25102-4 0  9990
TLE2=2 24842  86.4464 343.3051 0015776  39.1318 321.1021 14.44967024 55533
